$$SOE
2459580.500000000, A.D. 2022-Jan-01 00:00:00.0000, -4.726759962400126E+08, -1.103448541615032E+08, -4.973466936412184E+07,
2459587.500000000, A.D. 2022-Jan-08 00:00:00.0000, -4.691913994317657E+08, -1.185174916605777E+08, -4.951111483725573E+07,
2459594.500000000, A.D. 2022-Jan-15 00:00:00.0000, -4.655089875113745E+08, -1.266401347492882E+08, -4.926667874136771E+07,
2459601.500000000, A.D. 2022-Jan-22 00:00:00.0000, -4.616284597917730E+08, -1.347088557079243E+08, -4.900126879382357E+07,
2459608.500000000, A.D. 2022-Jan-29 00:00:00.0000, -4.575495490281228E+08, -1.427196595007941E+08, -4.871479502746160E+07,
2459615.500000000, A.D. 2022-Feb-05 00:00:00.0000, -4.532720259130383E+08, -1.506684819178917E+08, -4.840716983476798E+07,
2459622.500000000, A.D. 2022-Feb-12 00:00:00.0000, -4.487957015689589E+08, -1.585511887453186E+08, -4.807830831416605E+07,
2459629.500000000, A.D. 2022-Feb-19 00:00:00.0000, -4.441204293726588E+08, -1.663635735960473E+08, -4.772812860433272E+07,
2459636.500000000, A.D. 2022-Feb-26 00:00:00.0000, -4.392461074331242E+08, -1.741013551255449E+08, -4.735655214641860E+07,
2459643.500000000, A.D. 2022-Mar-05 00:00:00.0000, -4.341726815745691E+08, -1.817601742516001E+08, -4.696350394058803E+07,
2459650.500000000, A.D. 2022-Mar-12 00:00:00.0000, -4.289001486146600E+08, -1.893355914467002E+08, -4.654891282405491E+07,
2459657.500000000, A.D. 2022-Mar-19 00:00:00.0000, -4.234285598788009E+08, -1.968230840779845E+08, -4.611271177618288E+07,
2459664.500000000, A.D. 2022-Mar-26 00:00:00.0000, -4.177580249402487E+08, -2.042180438051570E+08, -4.565483825459969E+07,
2459671.500000000, A.D. 2022-Apr-02 00:00:00.0000, -4.118887155317910E+08, -2.115157740983628E+08, -4.517523457487723E+07,
2459678.500000000, A.D. 2022-Apr-09 00:00:00.0000, -4.058208693724695E+08, -2.187114878784747E+08, -4.467384836047837E+07,
2459685.500000000, A.D. 2022-Apr-16 00:00:00.0000, -3.995547935692437E+08, -2.258003046332801E+08, -4.415063304451650E+07,
2459692.500000000, A.D. 2022-Apr-23 00:00:00.0000, -3.930908688796766E+08, -2.327772459331180E+08, -4.360554822037792E+07,
2459699.500000000, A.D. 2022-Apr-30 00:00:00.0000, -3.864295567230181E+08, -2.396372316006381E+08, -4.303855985513984E+07,
2459706.500000000, A.D. 2022-May-07 00:00:00.0000, -3.795714058957678E+08, -2.463750785200773E+08, -4.244964081021962E+07,
2459713.500000000, A.D. 2022-May-14 00:00:00.0000, -3.725170576222645E+08, -2.529854990607947E+08, -4.183877155056921E+07,
2459720.500000000, A.D. 2022-May-21 00:00:00.0000, -3.652672509908931E+08, -2.594630983704572E+08, -4.120594079605952E+07,
2459727.500000000, A.D. 2022-May-28 00:00:00.0000, -3.578228292745160E+08, -2.658023715134266E+08, -4.055114615165900E+07,
2459734.500000000, A.D. 2022-Jun-04 00:00:00.0000, -3.501847468793858E+08, -2.719977007870826E+08, -3.987439477001360E+07,
2459741.500000000, A.D. 2022-Jun-11 00:00:00.0000, -3.423540768010731E+08, -2.780433532363634E+08, -3.917570406243496E+07,
2459748.500000000, A.D. 2022-Jun-18 00:00:00.0000, -3.343320185730352E+08, -2.839334783777791E+08, -3.845510246368669E+07,
2459755.500000000, A.D. 2022-Jun-25 00:00:00.0000, -3.261199067029982E+08, -2.896621061930261E+08, -3.771263025881965E+07,
2459762.500000000, A.D. 2022-Jul-02 00:00:00.0000, -3.177192194877799E+08, -2.952231454880074E+08, -3.694834049253824E+07,
2459769.500000000, A.D. 2022-Jul-09 00:00:00.0000, -3.091315878410441E+08, -3.006103824739802E+08, -3.616229998527214E+07,
2459776.500000000, A.D. 2022-Jul-16 00:00:00.0000, -3.003588042138009E+08, -3.058174785255233E+08, -3.535459036523177E+07,
2459783.500000000, A.D. 2022-Jul-23 00:00:00.0000, -2.914028338298928E+08, -3.108379670793261E+08, -3.452530891127016E+07,
2459790.500000000, A.D. 2022-Jul-30 00:00:00.0000, -2.822658281758168E+08, -3.156652530753360E+08, -3.367456949142738E+07,
2459797.500000000, A.D. 2022-Aug-06 00:00:00.0000, -2.729501371705269E+08, -3.202926143461260E+08, -3.280250387761676E+07,
2459804.500000000, A.D. 2022-Aug-13 00:00:00.0000, -2.634583208623719E+08, -3.247132022585240E+08, -3.190926313889459E+07,
2459811.500000000, A.D. 2022-Aug-20 00:00:00.0000, -2.537931622439077E+08, -3.289200421740208E+08, -3.099501901318616E+07,
2459818.500000000, A.D. 2022-Aug-27 00:00:00.0000, -2.439576811347483E+08, -3.329060345239511E+08, -3.005996532567325E+07,
2459825.500000000, A.D. 2022-Sep-03 00:00:00.0000, -2.339551488997256E+08, -3.366639566871682E+08, -2.910431948827814E+07,
2459832.500000000, A.D. 2022-Sep-10 00:00:00.0000, -2.237891039244692E+08, -3.401864657318720E+08, -2.812832408924937E+07,
2459839.500000000, A.D. 2022-Sep-17 00:00:00.0000, -2.134633678276630E+08, -3.434661021170167E+08, -2.713224857816251E+07,
2459846.500000000, A.D. 2022-Sep-24 00:00:00.0000, -2.029820623531072E+08, -3.464952945057358E+08, -2.611639105805361E+07,
2459853.500000000, A.D. 2022-Oct-01 00:00:00.0000, -1.923496266984164E+08, -3.492663658229932E+08, -2.508108021001264E+07,
2459860.500000000, A.D. 2022-Oct-08 00:00:00.0000, -1.815708348618407E+08, -3.517715401541877E+08, -2.402667734582283E+07,
2459867.500000000, A.D. 2022-Oct-15 00:00:00.0000, -1.706508139182412E+08, -3.540029494131134E+08, -2.295357840529181E+07,
2459874.500000000, A.D. 2022-Oct-22 00:00:00.0000, -1.595950653731658E+08, -3.559526415997490E+08, -2.186221583502881E+07,
2459881.500000000, A.D. 2022-Oct-29 00:00:00.0000, -1.484094870518091E+08, -3.576125933891507E+08, -2.075306078813830E+07,
2459888.500000000, A.D. 2022-Nov-05 00:00:00.0000, -1.371003933654885E+08, -3.589747244688861E+08, -1.962662561043775E+07,
2459895.500000000, A.D. 2022-Nov-12 00:00:00.0000, -1.256745358468124E+08, -3.600309125230609E+08, -1.848346632435118E+07,
2459902.500000000, A.D. 2022-Nov-19 00:00:00.0000, -1.141391245795732E+08, -3.607730099867055E+08, -1.732418511497423E+07,
2459909.500000000, A.D. 2022-Nov-26 00:00:00.0000, -1.025018501439274E+08, -3.611928631407771E+08, -1.614943286484636E+07,
2459916.500000000, A.D. 2022-Dec-03 00:00:00.0000, -9.077090576500489E+07, -3.612823337359813E+08, -1.495991174137391E+07,
2459923.500000000, A.D. 2022-Dec-10 00:00:00.0000, -7.895500944243151E+07, -3.610333233098134E+08, -1.375637782538788E+07,
2459930.500000000, A.D. 2022-Dec-17 00:00:00.0000, -6.706342582882498E+07, -3.604378004117231E+08, -1.253964376862149E+07,
2459937.500000000, A.D. 2022-Dec-24 00:00:00.0000, -5.510598751083479E+07, -3.594878309933731E+08, -1.131058147550596E+07,
2459944.500000000, A.D. 2022-Dec-31 00:00:00.0000, -4.309311506480344E+07, -3.581756120402473E+08, -1.007012480881684E+07,
2459951.500000000, A.D. 2023-Jan-07 00:00:00.0000, -3.103583545542312E+07, -3.564935076513392E+08, -8.819272222423658E+06,
2459958.500000000, A.D. 2023-Jan-14 00:00:00.0000, -1.894580039224015E+07, -3.544340872182582E+08, -7.559089065892845E+06,
2459965.500000000, A.D. 2023-Jan-21 00:00:00.0000, -6.835304889727519E+06, -3.519901689983615E+08, -6.290709722166017E+06,
2459972.500000000, A.D. 2023-Jan-28 00:00:00.0000, 5.282698083577684E+06, -3.491548693704206E+08, -5.015339887018010E+06,
2459979.500000000, A.D. 2023-Feb-04 00:00:00.0000, 1.739458715005204E+07, -3.459216548010628E+08, -3.734258674652159E+06,
2459986.500000000, A.D. 2023-Feb-11 00:00:00.0000, 2.948606500300716E+07, -3.422843967215590E+08, -2.448820345973358E+06,
2459993.500000000, A.D. 2023-Feb-18 00:00:00.0000, 4.154215433762842E+07, -3.382374300834724E+08, -1.160455661059678E+06,
2460000.500000000, A.D. 2023-Feb-25 00:00:00.0000, 5.354719811332946E+07, -3.337756156289772E+08, 1.293271718966514E+05,
2460007.500000000, A.D. 2023-Mar-04 00:00:00.0000, 6.548486489968634E+07, -3.288944056471942E+08, 1.418942012931183E+06,
2460014.500000000, A.D. 2023-Mar-11 00:00:00.0000, 7.733816000936516E+07, -3.235899129100854E+08, 2.706724842581734E+06,
2460021.500000000, A.D. 2023-Mar-18 00:00:00.0000, 8.908944315441585E+07, -3.178589824257943E+08, 3.990934417812154E+06,
2460028.500000000, A.D. 2023-Mar-25 00:00:00.0000, 1.007204535172176E+08, -3.116992655305982E+08, 5.269753587250426E+06,
2460035.500000000, A.D. 2023-Apr-01 00:00:00.0000, 1.122123433275873E+08, -3.051092952746187E+08, 6.541291337658420E+06,
2460042.500000000, A.D. 2023-Apr-08 00:00:00.0000, 1.235457199557580E+08, -2.980885610892382E+08, 7.803585804969743E+06,
2460049.500000000, A.D. 2023-Apr-15 00:00:00.0000, 1.347006947441717E+08, -2.906375829128350E+08, 9.054608445849687E+06,
2460056.500000000, A.D. 2023-Apr-22 00:00:00.0000, 1.456569408574679E+08, -2.827579867547211E+08, 1.029226901875490E+07,
2460063.500000000, A.D. 2023-Apr-29 00:00:00.0000, 1.563937632383302E+08, -2.744525782400677E+08, 1.151442136214134E+07,
2460070.500000000, A.D. 2023-May-06 00:00:00.0000, 1.668901791105298E+08, -2.657254110286479E+08, 1.271887031836538E+07,
2460077.500000000, A.D. 2023-May-13 00:00:00.0000, 1.771250080709027E+08, -2.565818495660446E+08, 1.390337984461525E+07,
2460084.500000000, A.D. 2023-May-20 00:00:00.0000, 1.870769718110675E+08, -2.470286251384390E+08, 1.506568225372024E+07,
2460091.500000000, A.D. 2023-May-27 00:00:00.0000, 1.967248032302916E+08, -2.370738836881826E+08, 1.620348854572442E+07,
2460098.500000000, A.D. 2023-Jun-03 00:00:00.0000, 2.060473643028309E+08, -2.267272237793435E+08, 1.731449978176431E+07,
2460105.500000000, A.D. 2023-Jun-10 00:00:00.0000, 2.150237717495850E+08, -2.159997231746722E+08, 1.839641942245328E+07,
2460112.500000000, A.D. 2023-Jun-17 00:00:00.0000, 2.236335293427593E+08, -2.049039526138816E+08, 1.944696651193526E+07,
2460119.500000000, A.D. 2023-Jun-24 00:00:00.0000, 2.318566656249472E+08, -1.934539754074806E+08, 2.046388954638733E+07,
2460126.500000000, A.D. 2023-Jul-01 00:00:00.0000, 2.396738754954690E+08, -1.816653308938625E+08, 2.144498090683835E+07,
2460133.500000000, A.D. 2023-Jul-08 00:00:00.0000, 2.470666619485965E+08, -1.695550000774379E+08, 2.238809188485178E+07,
2460140.500000000, A.D. 2023-Jul-15 00:00:00.0000, 2.540174744411941E+08, -1.571413557254443E+08, 2.329114796781278E+07,
$$EOE